norad_id,name,regime,epoch,line1,line2,inclination,eccentricity,mean_motion,raan,arg_pericenter,mean_anomaly
19789,COSMOS 1998,LEO,24001.88568234,1 19789U 89009E   24001.88568234  .00000034  00000-0  12773-3 0    15\,2 19789  82.6106 184.2580 0016353 163.1498 197.0141 12.64895121610578,82.6106,0.0016353,12.64895121,184.258,163.1498,197.0141
19789,COSMOS 1998,LEO,24002.59756101,1 19789U 89009E   24002.59756101  .00000040  00000-0  15588-3 0    10\,2 19789  82.6105 183.8038 0016374 161.5648 198.6041 12.64895202610668,82.6105,0.0016374,12.64895202,183.8038,161.5648,198.6041
19789,COSMOS 1998,LEO,24002.91395157,1 19789U 89009E   24002.91395157  .00000041  00000-0  16059-3 0    11\,2 19789  82.6105 183.6019 0016411 160.8707 199.3005 12.64895203610709,82.6105,0.0016411,12.64895203,183.6019,160.8707,199.3005
19789,COSMOS 1998,LEO,24003.54673271,1 19789U 89009E   24003.54673271  .00000039  00000-0  15200-3 0   640\,2 19789  82.6106 183.1981 0016446 159.4510 200.7248 12.64895201610969,82.6106,0.0016446,12.64895201,183.1981,159.451,200.7248
19789,COSMOS 1998,LEO,24003.94222099,1 19789U 89009E   24003.94222099  .00000039  00000-0  15115-3 0    18\,2 19789  82.6106 182.9457 0016473 158.5783 201.6002 12.64895168610832,82.6106,0.0016473,12.64895168,182.9457,158.5783,201.6002
19789,COSMOS 1998,LEO,24004.57500197,1 19789U 89009E   24004.57500197  .00000042  00000-0  16805-3 0    17\,2 19789  82.6106 182.5420 0016461 157.1886 202.9941 12.64895215610912,82.6106,0.0016461,12.64895215,182.542,157.1886,202.9941
19789,COSMOS 1998,LEO,24004.89139249,1 19789U 89009E   24004.89139249  .00000046  00000-0  18943-3 0    17\,2 19789  82.6107 182.3401 0016489 156.4728 203.7122 12.64895253610953,82.6107,0.0016489,12.64895253,182.3401,156.4728,203.7122
19789,COSMOS 1998,LEO,24005.60327106,1 19789U 89009E   24005.60327106  .00000050  00000-0  20946-3 0    19\,2 19789  82.6108 181.8858 0016512 154.8886 205.3013 12.64895333611045,82.6108,0.0016512,12.64895333,181.8858,154.8886,205.3013
19789,COSMOS 1998,LEO,24005.84056392,1 19789U 89009E   24005.84056392  .00000053  00000-0  22974-3 0   657\,2 19789  82.6108 181.7344 0016523 154.3746 205.8169 12.64895351611256,82.6108,0.0016523,12.64895351,181.7344,154.3746,205.8169
19789,COSMOS 1998,LEO,24005.91966155,1 19789U 89009E   24005.91966155  .00000052  00000-0  22267-3 0    16\,2 19789  82.6108 181.6839 0016530 154.1952 205.9968 12.64895351611088,82.6108,0.001653,12.64895351,181.6839,154.1952,205.9968
19789,COSMOS 1998,LEO,24006.47334487,1 19789U 89009E   24006.47334487  .00000055  00000-0  23642-3 0    16\,2 19789  82.6108 181.3306 0016538 152.9393 207.2565 12.64895410611159,82.6108,0.0016538,12.6489541,181.3306,152.9393,207.2565
19789,COSMOS 1998,LEO,24006.86883297,1 19789U 89009E   24006.86883297  .00000048  00000-0  20230-3 0    19\,2 19789  82.6108 181.0783 0016561 152.0894 208.1091 12.64895376611209,82.6108,0.0016561,12.64895376,181.0783,152.0894,208.1091
19789,COSMOS 1998,LEO,24007.58071146,1 19789U 89009E   24007.58071146  .00000044  00000-0  17871-3 0    14\,2 19789  82.6109 180.6240 0016591 150.5132 209.6900 12.64895424611292,82.6109,0.0016591,12.64895424,180.624,150.5132,209.69
19789,COSMOS 1998,LEO,24007.89710190,1 19789U 89009E   24007.89710190  .00000043  00000-0  17574-3 0    16\,2 19789  82.6109 180.4221 0016601 149.8233 210.3819 12.64895435611339,82.6109,0.0016601,12.64895435,180.4221,149.8233,210.3819
19789,COSMOS 1998,LEO,24007.97619950,1 19789U 89009E   24007.97619950  .00000042  00000-0  16942-3 0   665\,2 19789  82.6109 180.3717 0016604 149.6494 210.5563 12.64895440611523,82.6109,0.0016604,12.6489544,180.3717,149.6494,210.5563
19789,COSMOS 1998,LEO,24008.52988273,1 19789U 89009E   24008.52988273  .00000038  00000-0  14440-3 0    19\,2 19789  82.6110 180.0184 0016627 148.4315 211.7779 12.64895459611414,82.611,0.0016627,12.64895459,180.0184,148.4315,211.7779
19789,COSMOS 1998,LEO,24008.92537075,1 19789U 89009E   24008.92537075  .00000037  00000-0  14199-3 0    13\,2 19789  82.6111 179.7660 0016636 147.5663 212.6456 12.64895469611463,82.6111,0.0016636,12.64895469,179.766,147.5663,212.6456
19789,COSMOS 1998,LEO,24009.55815148,1 19789U 89009E   24009.55815148  .00000033  00000-0  11815-3 0    11\,2 19789  82.6111 179.3622 0016645 146.1640 214.0518 12.64895514611542,82.6111,0.0016645,12.64895514,179.3622,146.164,214.0518
19789,COSMOS 1998,LEO,24009.87454187,1 19789U 89009E   24009.87454187  .00000030  00000-0  10456-3 0    15\,2 19789  82.6111 179.1603 0016658 145.4933 214.7245 12.64895514611588,82.6111,0.0016658,12.64895514,179.1603,145.4933,214.7245
19789,COSMOS 1998,LEO,24010.42822499,1 19789U 89009E   24010.42822499  .00000027  00000-0  89588-4 0    12\,2 19789  82.6112 178.8070 0016681 144.2784 215.9429 12.64895558611653,82.6112,0.0016681,12.64895558,178.807,144.2784,215.9429
19789,COSMOS 1998,LEO,24011.53559124,1 19789U 89009E   24011.53559124  .00000017  00000-0  35356-4 0    10\,2 19789  82.6113 178.1004 0016669 141.8567 218.3709 12.64895547611793,82.6113,0.0016669,12.64895547,178.1004,141.8567,218.3709
19789,COSMOS 1998,LEO,24011.93107919,1 19789U 89009E   24011.93107919  .00000015  00000-0  22363-4 0    17\,2 19789  82.6113 177.8480 0016684 140.9982 219.2318 12.64895549611849,82.6113,0.0016684,12.64895549,177.848,140.9982,219.2318
19789,COSMOS 1998,LEO,24012.48476227,1 19789U 89009E   24012.48476227  .00000016  00000-0  27204-4 0    19\,2 19789  82.6114 177.4946 0016691 139.7742 220.4589 12.64895596611915,82.6114,0.0016691,12.64895596,177.4946,139.7742,220.4589
19789,COSMOS 1998,LEO,24012.88025017,1 19789U 89009E   24012.88025017  .00000020  00000-0  50001-4 0    16\,2 19789  82.6114 177.2422 0016689 138.9157 221.3196 12.64895620611967,82.6114,0.0016689,12.6489562,177.2422,138.9157,221.3196
19789,COSMOS 1998,LEO,24013.51303083,1 19789U 89009E   24013.51303083  .00000021  00000-0  53091-4 0    12\,2 19789  82.6115 176.8384 0016726 137.5273 222.7117 12.64895644612040,82.6115,0.0016726,12.64895644,176.8384,137.5273,222.7117
19789,COSMOS 1998,LEO,24014.54129923,1 19789U 89009E   24014.54129923  .00000031  00000-0  10759-3 0   693\,2 19789  82.6116 176.1825 0016741 135.3180 224.9265 12.64895736612358,82.6116,0.0016741,12.64895736,176.1825,135.318,224.9265
19789,COSMOS 1998,LEO,24014.93678712,1 19789U 89009E   24014.93678712  .00000027  00000-0  89226-4 0    18\,2 19789  82.6117 175.9302 0016742 134.5094 225.7370 12.64895702612227,82.6117,0.0016742,12.64895702,175.9302,134.5094,225.737
19789,COSMOS 1998,LEO,24015.49047017,1 19789U 89009E   24015.49047017  .00000029  00000-0  98420-4 0    16\,2 19789  82.6117 175.5770 0016761 133.2998 226.9496 12.64895713612293,82.6117,0.0016761,12.64895713,175.577,133.2998,226.9496
19789,COSMOS 1998,LEO,24015.80686047,1 19789U 89009E   24015.80686047  .00000033  00000-0  11756-3 0    14\,2 19789  82.6118 175.3751 0016768 132.6211 227.6298 12.64895710612339,82.6118,0.0016768,12.6489571,175.3751,132.6211,227.6298
19789,COSMOS 1998,LEO,24016.51873849,1 19789U 89009E   24016.51873849  .00000041  00000-0  16289-3 0    16\,2 19789  82.6119 174.9209 0016797 131.0651 229.1896 12.64895797612422,82.6119,0.0016797,12.64895797,174.9209,131.0651,229.1896
19789,COSMOS 1998,LEO,24016.91422628,1 19789U 89009E   24016.91422628  .00000044  00000-0  18004-3 0   701\,2 19789  82.6119 174.6686 0016814 130.2009 230.0559 12.64895836612652,82.6119,0.0016814,12.64895836,174.6686,130.2009,230.0559
19789,COSMOS 1998,LEO,24017.54700673,1 19789U 89009E   24017.54700673  .00000050  00000-0  20946-3 0    19\,2 19789  82.6120 174.2649 0016836 128.8274 231.4324 12.64895899612553,82.612,0.0016836,12.64895899,174.2649,128.8274,231.4324
19789,COSMOS 1998,LEO,24017.94249451,1 19789U 89009E   24017.94249451  .00000051  00000-0  21801-3 0    17\,2 19789  82.6121 174.0127 0016849 127.9922 232.2695 12.64895913612600,82.6121,0.0016849,12.64895913,174.0127,127.9922,232.2695
19789,COSMOS 1998,LEO,24018.49617733,1 19789U 89009E   24018.49617733  .00000053  00000-0  22850-3 0    17\,2 19789  82.6122 173.6595 0016867 126.7958 233.4685 12.64895955612676,82.6122,0.0016867,12.64895955,173.6595,126.7958,233.4685
19789,COSMOS 1998,LEO,24018.89166507,1 19789U 89009E   24018.89166507  .00000052  00000-0  22209-3 0    16\,2 19789  82.6123 173.4071 0016875 125.9337 234.3324 12.64895962612729,82.6123,0.0016875,12.64895962,173.4071,125.9337,234.3324
19789,COSMOS 1998,LEO,24019.44534772,1 19789U 89009E   24019.44534772  .00000056  00000-0  24178-3 0   719\,2 19789  82.6123 173.0538 0016871 124.7323 235.5362 12.64896060612973,82.6123,0.0016871,12.6489606,173.0538,124.7323,235.5362
19789,COSMOS 1998,LEO,24019.52444525,1 19789U 89009E   24019.52444525  .00000053  00000-0  22778-3 0    18\,2 19789  82.6123 173.0034 0016874 124.5608 235.7080 12.64896051612802,82.6123,0.0016874,12.64896051,173.0034,124.5608,235.708
19789,COSMOS 1998,LEO,24019.91993289,1 19789U 89009E   24019.91993289  .00000053  00000-0  22719-3 0    12\,2 19789  82.6124 172.7511 0016882 123.7170 236.5534 12.64896088612851,82.6124,0.0016882,12.64896088,172.7511,123.717,236.5534
19789,COSMOS 1998,LEO,24020.47361558,1 19789U 89009E   24020.47361558  .00000053  00000-0  22485-3 0    13\,2 19789  82.6125 172.3979 0016901 122.5315 237.7413 12.64896135612926,82.6125,0.0016901,12.64896135,172.3979,122.5315,237.7413
19789,COSMOS 1998,LEO,24020.86910320,1 19789U 89009E   24020.86910320  .00000049  00000-0  20829-3 0    18\,2 19789  82.6125 172.1456 0016903 121.6835 238.5908 12.64896136612977,82.6125,0.0016903,12.64896136,172.1456,121.6835,238.5908
19789,COSMOS 1998,LEO,24021.50188325,1 19789U 89009E   24021.50188325  .00000047  00000-0  19624-3 0   729\,2 19789  82.6126 171.7419 0016910 120.3264 239.9503 12.64896209613239,82.6126,0.001691,12.64896209,171.7419,120.3264,239.9503
19789,COSMOS 1998,LEO,24021.89737081,1 19789U 89009E   24021.89737081  .00000040  00000-0  15737-3 0    16\,2 19789  82.6127 171.4895 0016918 119.4766 240.8017 12.64896211613109,82.6127,0.0016918,12.64896211,171.4895,119.4766,240.8017
